[{"OBJECT_NAME":"STARLINK-30552","OBJECT_ID":"2023-153J","EPOCH":"2026-03-09T22:00:01.999584","MEAN_MOTION":15.2672356,"ECCENTRICITY":0.00011544,"INCLINATION":43.0006,"RA_OF_ASC_NODE":65.8896,"ARG_OF_PERICENTER":264.2372,"MEAN_ANOMALY":312.9153,"EPHEMERIS_TYPE":0,"CLASSIFICATION_TYPE":"U","NORAD_CAT_ID":57999,"ELEMENT_SET_NO":999,"REV_AT_EPOCH":578,"BSTAR":0.0013314841,"MEAN_MOTION_DOT":0.0003561,"MEAN_MOTION_DDOT":0},{"OBJECT_NAME":"ARCSTONE","OBJECT_ID":"2025-135N","EPOCH":"2026-03-09T21:21:29.017152","MEAN_MOTION":15.28638458,"ECCENTRICITY":0.00041199,"INCLINATION":97.4495,"RA_OF_ASC_NODE":185.9194,"ARG_OF_PERICENTER":166.7863,"MEAN_ANOMALY":193.3485,"EPHEMERIS_TYPE":0,"CLASSIFICATION_TYPE":"U","NORAD_CAT_ID":64540,"ELEMENT_SET_NO":999,"REV_AT_EPOCH":3984,"BSTAR":0.00094899777,"MEAN_MOTION_DOT":0.00026427,"MEAN_MOTION_DDOT":0}]
